{
  "info": [
    {
      "id": 1,
      "name": "abc",
      "address": "mumbai",
      "pincode": "42121",
      "mobileno": "888888"
    },
    {
      "id": 2,
      "name": "sai",
      "address": "pune",
      "pincode": "411052",
      "mobileno": "9765732733"
    },
    {
      "id": 3,
      "name": "sai1",
      "address": "pune",
      "pincode": "411211",
      "mobileno": "9797"
    },
    {
      "id": 4,
      "name": "dd",
      "address": "dddd",
      "pincode": "412",
      "mobileno": "11111"
    },
    {
      "id": 5,
      "name": "ss",
      "address": "ssssss",
      "pincode": "123",
      "mobileno": "555"
    },
    {
      "id": 6,
      "name": "saiprasad",
      "address": "pune",
      "pincode": "411052",
      "mobileno": "9999"
    },
    {
      "id": 7,
      "name": "sai123",
      "address": "pune",
      "pincode": "411111",
      "mobileno": "97657"
    },
    {
      "id": 8,
      "name": "sai",
      "address": "pune",
      "pincode": "431006",
      "mobileno": "9999"
    },
    {
      "id": 9,
      "name": "sai",
      "address": "pune",
      "pincode": "4111",
      "mobileno": "22"
    },
    {
      "id": 10,
      "name": "saiprasad",
      "address": "pune",
      "pincode": "4112",
      "mobileno": "979"
    },
    {
      "id": 11,
      "name": "d",
      "address": "d",
      "pincode": "12",
      "mobileno": "123"
    }
  ]
}